$$SOE
2461295.500000000, A.D. 2026-Sep-12 00:00:00.0000, -9.903992569733326E+07, -3.155964755619006E+08, 1.932364342340370E+07,
2461302.500000000, A.D. 2026-Sep-19 00:00:00.0000, -8.691688982383895E+07, -3.196479984882238E+08, 2.029599994514868E+07,
2461309.500000000, A.D. 2026-Sep-26 00:00:00.0000, -7.467841459836349E+07, -3.232750916176816E+08, 2.124140684438887E+07,
2461316.500000000, A.D. 2026-Oct-03 00:00:00.0000, -6.234127962797867E+07, -3.264752308455923E+08, 2.215875930837190E+07,
2461323.500000000, A.D. 2026-Oct-10 00:00:00.0000, -4.992225535221899E+07, -3.292466875993799E+08, 2.304701516551764E+07,
2461330.500000000, A.D. 2026-Oct-17 00:00:00.0000, -3.743805684427270E+07, -3.315885177304154E+08, 2.390519652904394E+07,
2461337.500000000, A.D. 2026-Oct-24 00:00:00.0000, -2.490529924993510E+07, -3.335005473142313E+08, 2.473239109513155E+07,
2461344.500000000, A.D. 2026-Oct-31 00:00:00.0000, -1.234045501220610E+07, -3.349833556497584E+08, 2.552775308570717E+07,
2461351.500000000, A.D. 2026-Nov-07 00:00:00.0000, 2.401872399800569E+05, -3.360382556254043E+08, 2.629050381857646E+07,
2461358.500000000, A.D. 2026-Nov-14 00:00:00.0000, 1.282056215366001E+07, -3.366672708200867E+08, 2.701993196939646E+07,
2461365.500000000, A.D. 2026-Nov-21 00:00:00.0000, 2.538486349865405E+07, -3.368731089218501E+08, 2.771539375995414E+07,
2461372.500000000, A.D. 2026-Nov-28 00:00:00.0000, 3.791757528032309E+07, -3.366591347412696E+08, 2.837631293275613E+07,
2461379.500000000, A.D. 2026-Dec-05 00:00:00.0000, 5.040350164991762E+07, -3.360293437499103E+08, 2.900218014277600E+07,
2461386.500000000, A.D. 2026-Dec-12 00:00:00.0000, 6.282779571913146E+07, -3.349883333088531E+08, 2.959255202430795E+07,
2461393.500000000, A.D. 2026-Dec-19 00:00:00.0000, 7.517598536100964E+07, -3.335412718514197E+08, 3.014705012663379E+07,
2461400.500000000, A.D. 2026-Dec-26 00:00:00.0000, 8.743399585136168E+07, -3.316938671497593E+08, 3.066535968131611E+07,
2461407.500000000, A.D. 2027-Jan-02 00:00:00.0000, 9.958816964791290E+07, -3.294523341074011E+08, 3.114722818132721E+07,
2461414.500000000, A.D. 2027-Jan-09 00:00:00.0000, 1.116252834675615E+08, -3.268233622958210E+08, 3.159246378402981E+07,
2461421.500000000, A.D. 2027-Jan-16 00:00:00.0000, 1.235325627606067E+08, -3.238140834489378E+08, 3.200093355606823E+07,
2461428.500000000, A.D. 2027-Jan-23 00:00:00.0000, 1.352976937105217E+08, -3.204320391619024E+08, 3.237256157290965E+07,
2461435.500000000, A.D. 2027-Jan-30 00:00:00.0000, 1.469088330460613E+08, -3.166851490339144E+08, 3.270732687232745E+07,
2461442.500000000, A.D. 2027-Feb-06 00:00:00.0000, 1.583546162014959E+08, -3.125816790916820E+08, 3.300526127106315E+07,
2461449.500000000, A.D. 2027-Feb-13 00:00:00.0000, 1.696241634843097E+08, -3.081302094324985E+08, 3.326644720591871E+07,
2461456.500000000, A.D. 2027-Feb-20 00:00:00.0000, 1.807070820129849E+08, -3.033396020158997E+08, 3.349101576888825E+07,
2461463.500000000, A.D. 2027-Feb-27 00:00:00.0000, 1.915934649541610E+08, -2.982189719346666E+08, 3.367914456129219E+07,
2461470.500000000, A.D. 2027-Mar-06 00:00:00.0000, 2.022738912174356E+08, -2.927776603438398E+08, 3.383105526229009E+07,
2461477.500000000, A.D. 2027-Mar-13 00:00:00.0000, 2.127394241504337E+08, -2.870252070858915E+08, 3.394701124075137E+07,
2461484.500000000, A.D. 2027-Mar-20 00:00:00.0000, 2.229816082469707E+08, -2.809713239185323E+08, 3.402731525939414E+07,
2461491.500000000, A.D. 2027-Mar-27 00:00:00.0000, 2.329924642110390E+08, -2.746258689505678E+08, 3.407230722005601E+07,
2461498.500000000, A.D. 2027-Apr-03 00:00:00.0000, 2.427644827173134E+08, -2.679988223764936E+08, 3.408236193870212E+07,
2461505.500000000, A.D. 2027-Apr-10 00:00:00.0000, 2.522906170619931E+08, -2.611002635172808E+08, 3.405788695620482E+07,
2461512.500000000, A.D. 2027-Apr-17 00:00:00.0000, 2.615642748511248E+08, -2.539403491993542E+08, 3.399932038948574E+07,
2461519.500000000, A.D. 2027-Apr-24 00:00:00.0000, 2.705793089231037E+08, -2.465292935372677E+08, 3.390712881600814E+07,
2461526.500000000, A.D. 2027-May-01 00:00:00.0000, 2.793300079187446E+08, -2.388773490820925E+08, 3.378180517025027E+07,
2461533.500000000, A.D. 2027-May-08 00:00:00.0000, 2.878110869199759E+08, -2.309947885695347E+08, 3.362386668951595E+07,
2461540.500000000, A.D. 2027-May-15 00:00:00.0000, 2.960176767709919E+08, -2.228918862951963E+08, 3.343385312967656E+07,
2461547.500000000, A.D. 2027-May-22 00:00:00.0000, 3.039453106193349E+08, -2.145789016863013E+08, 3.321232518718534E+07,
2461554.500000000, A.D. 2027-May-29 00:00:00.0000, 3.115899111237862E+08, -2.060660665091244E+08, 3.295986270279997E+07,
2461561.500000000, A.D. 2027-Jun-05 00:00:00.0000, 3.189477792976825E+08, -1.973635725466188E+08, 3.267706282426666E+07,
2461568.500000000, A.D. 2027-Jun-12 00:00:00.0000, 3.260155830563611E+08, -1.884815592772941E+08, 3.236453834895659E+07,
2461575.500000000, A.D. 2027-Jun-19 00:00:00.0000, 3.327903452060516E+08, -1.794301024488347E+08, 3.202291620084934E+07,
2461582.500000000, A.D. 2027-Jun-26 00:00:00.0000, 3.392694312154587E+08, -1.702192037627324E+08, 3.165283599461096E+07,
2461589.500000000, A.D. 2027-Jul-03 00:00:00.0000, 3.454505369583556E+08, -1.608587816146759E+08, 3.125494867472333E+07,
2461596.500000000, A.D. 2027-Jul-10 00:00:00.0000, 3.513316765147943E+08, -1.513586628343198E+08, 3.082991522618793E+07,
2461603.500000000, A.D. 2027-Jul-17 00:00:00.0000, 3.569111701123053E+08, -1.417285754157277E+08, 3.037840544918231E+07,
2461610.500000000, A.D. 2027-Jul-24 00:00:00.0000, 3.621876324020657E+08, -1.319781422536283E+08, 2.990109677648490E+07,
2461617.500000000, A.D. 2027-Jul-31 00:00:00.0000, 3.671599615143751E+08, -1.221168756009677E+08, 2.939867311302736E+07,
2461624.500000000, A.D. 2027-Aug-07 00:00:00.0000, 3.718273287240747E+08, -1.121541710470040E+08, 2.887182380856689E+07,
2461631.500000000, A.D. 2027-Aug-14 00:00:00.0000, 3.761891664547390E+08, -1.020993012249252E+08, 2.832124295284987E+07,
2461638.500000000, A.D. 2027-Aug-21 00:00:00.0000, 3.802451552616341E+08, -9.196141257181630E+07, 2.774762865933944E+07,
2461645.500000000, A.D. 2027-Aug-28 00:00:00.0000, 3.839952132388891E+08, -8.174952389439474E+07, 2.715168211781747E+07,
2461652.500000000, A.D. 2027-Sep-04 00:00:00.0000, 3.874394866827921E+08, -7.147252419523907E+07, 2.653410672575397E+07,
2461659.500000000, A.D. 2027-Sep-11 00:00:00.0000, 3.905783406269348E+08, -6.113917038051334E+07, 2.589560736959836E+07,
2461666.500000000, A.D. 2027-Sep-18 00:00:00.0000, 3.934123493898976E+08, -5.075808546049017E+07, 2.523688978765343E+07,
2461673.500000000, A.D. 2027-Sep-25 00:00:00.0000, 3.959422873691506E+08, -4.033775728229754E+07, 2.455865998416284E+07,
2461680.500000000, A.D. 2027-Oct-02 00:00:00.0000, 3.981691201596509E+08, -2.988653773004370E+07, 2.386162368713631E+07,
2461687.500000000, A.D. 2027-Oct-09 00:00:00.0000, 4.000939960225077E+08, -1.941264236120437E+07, 2.314648584494375E+07,
2461694.500000000, A.D. 2027-Oct-16 00:00:00.0000, 4.017182377692658E+08, -8.924150501184657E+06, 2.241395014908246E+07,
2461701.500000000, A.D. 2027-Oct-23 00:00:00.0000, 4.030433353220919E+08, 1.570994227986260E+06, 2.166471855638107E+07,
2461708.500000000, A.D. 2027-Oct-30 00:00:00.0000, 4.040709393212159E+08, 1.206498358325810E+07, 2.089949082342960E+07,
2461715.500000000, A.D. 2027-Nov-06 00:00:00.0000, 4.048028546125078E+08, 2.255014573730864E+07, 2.011896424998780E+07,
2461722.500000000, A.D. 2027-Nov-13 00:00:00.0000, 4.052410316296095E+08, 3.301894562570843E+07, 1.932383364235988E+07,
2461729.500000000, A.D. 2027-Nov-20 00:00:00.0000, 4.053875585683768E+08, 4.346398243927957E+07, 1.851479104965681E+07,
2461736.500000000, A.D. 2027-Nov-27 00:00:00.0000, 4.052446559618112E+08, 5.387798724755225E+07, 1.769252536417531E+07,
2461743.500000000, A.D. 2027-Dec-04 00:00:00.0000, 4.048146716239155E+08, 6.425382168919071E+07, 1.685772204416079E+07,
2461750.500000000, A.D. 2027-Dec-11 00:00:00.0000, 4.041000754053305E+08, 7.458447678547715E+07, 1.601106292898231E+07,
2461757.500000000, A.D. 2027-Dec-18 00:00:00.0000, 4.031034540289743E+08, 8.486307155588196E+07, 1.515322609214473E+07,
2461764.500000000, A.D. 2027-Dec-25 00:00:00.0000, 4.018275061504084E+08, 9.508285144987850E+07, 1.428488571637508E+07,
2461771.500000000, A.D. 2028-Jan-01 00:00:00.0000, 4.002750376762391E+08, 1.052371866240287E+08, 1.340671198648253E+07,
$$EOE